{
  "type": "FeatureCollection",
  "features": [
    {
      "type": "Feature",
      "properties": {
        "norad_id": 66638,
        "name": "STARLINK-35972",
        "group": "last-30-days",
        "lat": 22.600102573704554,
        "lon": -173.3954474100521,
        "alt_km": 415.60377314034577,
        "timestamp": "2025-12-16T15:45:49.732634+00:00",
        "meta_object_name": "STARLINK-35972",
        "meta_object_id": "2025-271X",
        "meta_epoch": "2025-12-15T22:00:01.999584",
        "meta_mean_motion": 15.49255832,
        "meta_eccentricity": 8.536e-05,
        "meta_inclination": 53.1589,
        "meta_ra_of_asc_node": 171.9592,
        "meta_arg_of_pericenter": 55.1081,
        "meta_mean_anomaly": 163.2077,
        "meta_ephemeris_type": 0,
        "meta_classification_type": "U",
        "meta_norad_cat_id": 66638,
        "meta_element_set_no": 999,
        "meta_rev_at_epoch": 475,
        "meta_bstar": 0.001425051,
        "meta_mean_motion_dot": 0.00079468,
        "meta_mean_motion_ddot": 0,
        "tle_line1": "1 66638U 25271X   25349.91668981  .00079468  00000+0  14251-2 0  9995",
        "tle_line2": "2 66638  53.1589 171.9592 0000853  55.1081 163.2077 15.49255832  4758"
      },
      "geometry": {
        "type": "Point",
        "coordinates": [
          -173.3954474100521,
          22.600102573704554
        ]
      }
    },
    {
      "type": "Feature",
      "properties": {
        "norad_id": 66639,
        "name": "STARLINK-35908",
        "group": "last-30-days",
        "lat": 24.048503576844766,
        "lon": -172.03885137967893,
        "alt_km": 415.4384209279242,
        "timestamp": "2025-12-16T15:45:49.732644+00:00",
        "meta_object_name": "STARLINK-35908",
        "meta_object_id": "2025-271Y",
        "meta_epoch": "2025-12-15T22:00:01.999584",
        "meta_mean_motion": 15.49252547,
        "meta_eccentricity": 9.515e-05,
        "meta_inclination": 53.1589,
        "meta_ra_of_asc_node": 171.9547,
        "meta_arg_of_pericenter": 74.8716,
        "meta_mean_anomaly": 145.3655,
        "meta_ephemeris_type": 0,
        "meta_classification_type": "U",
        "meta_norad_cat_id": 66639,
        "meta_element_set_no": 999,
        "meta_rev_at_epoch": 475,
        "meta_bstar": 0.0014431779,
        "meta_mean_motion_dot": 0.00080486,
        "meta_mean_motion_ddot": 0,
        "tle_line1": "1 66639U 25271Y   25349.91668981  .00080486  00000+0  14432-2 0  9999",
        "tle_line2": "2 66639  53.1589 171.9547 0000951  74.8716 145.3655 15.49252547  4754"
      },
      "geometry": {
        "type": "Point",
        "coordinates": [
          -172.03885137967893,
          24.048503576844766
        ]
      }
    },
    {
      "type": "Feature",
      "properties": {
        "norad_id": 66640,
        "name": "STARLINK-35921",
        "group": "last-30-days",
        "lat": 25.490888953732345,
        "lon": -170.64452543835557,
        "alt_km": 415.05680869261687,
        "timestamp": "2025-12-16T15:45:49.732654+00:00",
        "meta_object_name": "STARLINK-35921",
        "meta_object_id": "2025-271Z",
        "meta_epoch": "2025-12-15T22:00:01.999584",
        "meta_mean_motion": 15.49254395,
        "meta_eccentricity": 0.00012182,
        "meta_inclination": 53.159,
        "meta_ra_of_asc_node": 171.9509,
        "meta_arg_of_pericenter": 74.7899,
        "meta_mean_anomaly": 147.3633,
        "meta_ephemeris_type": 0,
        "meta_classification_type": "U",
        "meta_norad_cat_id": 66640,
        "meta_element_set_no": 999,
        "meta_rev_at_epoch": 475,
        "meta_bstar": 0.0014472077,
        "meta_mean_motion_dot": 0.0008072,
        "meta_mean_motion_ddot": 0,
        "tle_line1": "1 66640U 25271Z   25349.91668981  .00080720  00000+0  14472-2 0  9996",
        "tle_line2": "2 66640  53.1590 171.9509 0001218  74.7899 147.3633 15.49254395  4755"
      },
      "geometry": {
        "type": "Point",
        "coordinates": [
          -170.64452543835557,
          25.490888953732345
        ]
      }
    },
    {
      "type": "Feature",
      "properties": {
        "norad_id": 66641,
        "name": "STARLINK-35923",
        "group": "last-30-days",
        "lat": 31.10330942189791,
        "lon": -164.71239316645523,
        "alt_km": 414.2292392651507,
        "timestamp": "2025-12-16T15:45:49.732664+00:00",
        "meta_object_name": "STARLINK-35923",
        "meta_object_id": "2025-271AA",
        "meta_epoch": "2025-12-15T22:00:01.999584",
        "meta_mean_motion": 15.49258702,
        "meta_eccentricity": 0.00011604,
        "meta_inclination": 53.1589,
        "meta_ra_of_asc_node": 171.9339,
        "meta_arg_of_pericenter": 88.4901,
        "meta_mean_anomaly": 141.3192,
        "meta_ephemeris_type": 0,
        "meta_classification_type": "U",
        "meta_norad_cat_id": 66641,
        "meta_element_set_no": 999,
        "meta_rev_at_epoch": 475,
        "meta_bstar": 0.0014345679,
        "meta_mean_motion_dot": 0.00080016,
        "meta_mean_motion_ddot": 0,
        "tle_line1": "1 66641U 25271AA  25349.91668981  .00080016  00000+0  14346-2 0  9995",
        "tle_line2": "2 66641  53.1589 171.9339 0001160  88.4901 141.3192 15.49258702  4757"
      },
      "geometry": {
        "type": "Point",
        "coordinates": [
          -164.71239316645523,
          31.10330942189791
        ]
      }
    },
    {
      "type": "Feature",
      "properties": {
        "norad_id": 66642,
        "name": "STARLINK-35926",
        "group": "last-30-days",
        "lat": 29.729169419517024,
        "lon": -166.25064436237614,
        "alt_km": 414.4853145390216,
        "timestamp": "2025-12-16T15:45:49.732674+00:00",
        "meta_object_name": "STARLINK-35926",
        "meta_object_id": "2025-271AB",
        "meta_epoch": "2025-12-15T22:00:01.999584",
        "meta_mean_motion": 15.49258006,
        "meta_eccentricity": 7.921e-05,
        "meta_inclination": 53.1589,
        "meta_ra_of_asc_node": 171.9388,
        "meta_arg_of_pericenter": 66.9017,
        "meta_mean_anomaly": 160.9914,
        "meta_ephemeris_type": 0,
        "meta_classification_type": "U",
        "meta_norad_cat_id": 66642,
        "meta_element_set_no": 999,
        "meta_rev_at_epoch": 451,
        "meta_bstar": 0.0014500199,
        "meta_mean_motion_dot": 0.00080889,
        "meta_mean_motion_ddot": 0,
        "tle_line1": "1 66642U 25271AB  25349.91668981  .00080889  00000+0  14500-2 0  9996",
        "tle_line2": "2 66642  53.1589 171.9388 0000792  66.9017 160.9914 15.49258006  4511"
      },
      "geometry": {
        "type": "Point",
        "coordinates": [
          -166.25064436237614,
          29.729169419517024
        ]
      }
    },
    {
      "type": "Feature",
      "properties": {
        "norad_id": 66643,
        "name": "STARLINK-35918",
        "group": "last-30-days",
        "lat": 26.9170759180416,
        "lon": -169.21898052342758,
        "alt_km": 414.7778374429399,
        "timestamp": "2025-12-16T15:45:49.732684+00:00",
        "meta_object_name": "STARLINK-35918",
        "meta_object_id": "2025-271AC",
        "meta_epoch": "2025-12-15T22:00:01.999584",
        "meta_mean_motion": 15.49254162,
        "meta_eccentricity": 0.00012292,
        "meta_inclination": 53.159,
        "meta_ra_of_asc_node": 171.9471,
        "meta_arg_of_pericenter": 72.0093,
        "meta_mean_anomaly": 152.0608,
        "meta_ephemeris_type": 0,
        "meta_classification_type": "U",
        "meta_norad_cat_id": 66643,
        "meta_element_set_no": 999,
        "meta_rev_at_epoch": 475,
        "meta_bstar": 0.0014372534,
        "meta_mean_motion_dot": 0.00080155,
        "meta_mean_motion_ddot": 0,
        "tle_line1": "1 66643U 25271AC  25349.91668981  .00080155  00000+0  14373-2 0  9991",
        "tle_line2": "2 66643  53.1590 171.9471 0001229  72.0093 152.0608 15.49254162  4752"
      },
      "geometry": {
        "type": "Point",
        "coordinates": [
          -169.21898052342758,
          26.9170759180416
        ]
      }
    },
    {
      "type": "Feature",
      "properties": {
        "norad_id": 66644,
        "name": "STARLINK-35938",
        "group": "last-30-days",
        "lat": 28.333346423544324,
        "lon": -167.7520342651855,
        "alt_km": 414.8519905236344,
        "timestamp": "2025-12-16T15:45:49.732697+00:00",
        "meta_object_name": "STARLINK-35938",
        "meta_object_id": "2025-271AD",
        "meta_epoch": "2025-12-15T22:00:01.999584",
        "meta_mean_motion": 15.49255384,
        "meta_eccentricity": 6.422e-05,
        "meta_inclination": 53.1589,
        "meta_ra_of_asc_node": 171.9431,
        "meta_arg_of_pericenter": 74.3022,
        "meta_mean_anomaly": 151.6838,
        "meta_ephemeris_type": 0,
        "meta_classification_type": "U",
        "meta_norad_cat_id": 66644,
        "meta_element_set_no": 999,
        "meta_rev_at_epoch": 475,
        "meta_bstar": 0.0014286683,
        "meta_mean_motion_dot": 0.00079672,
        "meta_mean_motion_ddot": 0,
        "tle_line1": "1 66644U 25271AD  25349.91668981  .00079672  00000+0  14287-2 0  9998",
        "tle_line2": "2 66644  53.1589 171.9431 0000642  74.3022 151.6838 15.49255384  4759"
      },
      "geometry": {
        "type": "Point",
        "coordinates": [
          -167.7520342651855,
          28.333346423544324
        ]
      }
    }
  ]
}